{"type": "FeatureCollection", "features": [ {"type": "Feature", "properties": {"norad_id": 31674, "name": "FENGYUN 1C DEB", "group": "fengyun-1c-debris", "lat": -68.12644619351342, "lon": 60.56442252314974, "alt_km": 713.669976430986, "timestamp": "2025-12-26T08:37:54.863829+00:00", "meta": {"OBJECT_NAME": "FENGYUN 1C DEB", "OBJECT_ID": "1999-025CCG", "EPOCH": "2025-12-21T19:48:19.306080", "MEAN_MOTION": 14.52041025, "ECCENTRICITY": 0.00251906, "INCLINATION": 98.9259, "RA_OF_ASC_NODE": 32.7017, "ARG_OF_PERICENTER": 257.1305, "MEAN_ANOMALY": 102.7074, "EPHEMERIS_TYPE": 0, "CLASSIFICATION_TYPE": "U", "NORAD_CAT_ID": 31674, "ELEMENT_SET_NO": 999, "REV_AT_EPOCH": 64746, "BSTAR": 0.0020848751, "MEAN_MOTION_DOT": 8.422e-05, "MEAN_MOTION_DDOT": 0}, "tle": {"line1": "1 31674U 99025CCG 25355.82522345  .00008422  00000+0  20849-2 0  9997", "line2": "2 31674  98.9259  32.7017 0025190 257.1305 102.7074 14.52041025647467"}}, "geometry": {"type": "Point", "coordinates": [60.56442252314974, -68.12644619351342]}}, {"type": "Feature", "properties": {"norad_id": 31678, "name": "FENGYUN 1C DEB", "group": "fengyun-1c-debris", "lat": -51.642297603253155, "lon": 121.51821558468095, "alt_km": 577.5136852216019, "timestamp": "2025-12-26T08:37:54.863839+00:00", "meta": {"OBJECT_NAME": "FENGYUN 1C DEB", "OBJECT_ID": "1999-025CCL", "EPOCH": "2025-12-24T13:54:04.287456", "MEAN_MOTION": 14.5329317, "ECCENTRICITY": 0.02582086, "INCLINATION": 98.7992, "RA_OF_ASC_NODE": 108.3604, "ARG_OF_PERICENTER": 351.9228, "MEAN_ANOMALY": 7.7846, "EPHEMERIS_TYPE": 0, "CLASSIFICATION_TYPE": "U", "NORAD_CAT_ID": 31678, "ELEMENT_SET_NO": 999, "REV_AT_EPOCH": 97011, "BSTAR": 0.00078715608, "MEAN_MOTION_DOT": 5.026e-05, "MEAN_MOTION_DDOT": 0}, "tle": {"line1": "1 31678U 99025CCL 25358.57921629  .00005026  00000+0  78716-3 0  9998", "line2": "2 31678  98.7992 108.3604 0258208 351.9228   7.7846 14.53293170970113"}}, "geometry": {"type": "Point", "coordinates": [121.51821558468095, -51.642297603253155]}}, {"type": "Feature", "properties": {"norad_id": 31680, "name": "FENGYUN 1C DEB", "group": "fengyun-1c-debris", "lat": 36.68746843473186, "lon": -60.460466258745036, "alt_km": 499.20368071281064, "timestamp": "2025-12-26T08:37:54.863849+00:00", "meta": {"OBJECT_NAME": "FENGYUN 1C DEB", "OBJECT_ID": "1999-025CCN", "EPOCH": "2025-12-24T13:28:55.173216", "MEAN_MOTION": 15.24845989, "ECCENTRICITY": 0.00745036, "INCLINATION": 99.8372, "RA_OF_ASC_NODE": 109.7543, "ARG_OF_PERICENTER": 251.2866, "MEAN_ANOMALY": 108.0268, "EPHEMERIS_TYPE": 0, "CLASSIFICATION_TYPE": "U", "NORAD_CAT_ID": 31680, "ELEMENT_SET_NO": 999, "REV_AT_EPOCH": 352, "BSTAR": 0.0014478473, "MEAN_MOTION_DOT": 0.00038992, "MEAN_MOTION_DDOT": 0}, "tle": {"line1": "1 31680U 99025CCN 25358.56174969  .00038992  00000+0  14478-2 0  9999", "line2": "2 31680  99.8372 109.7543 0074503 251.2866 108.0268 15.24845989  3526"}}, "geometry": {"type": "Point", "coordinates": [-60.460466258745036, 36.68746843473186]}}, {"type": "Feature", "properties": {"norad_id": 31685, "name": "FENGYUN 1C DEB", "group": "fengyun-1c-debris", "lat": 81.09419809045265, "lon": -54.517219820574816, "alt_km": 854.7050176022385, "timestamp": "2025-12-26T08:37:54.863859+00:00", "meta": {"OBJECT_NAME": "FENGYUN 1C DEB", "OBJECT_ID": "1999-025CCT", "EPOCH": "2025-12-23T18:53:17.762496", "MEAN_MOTION": 14.09662143, "ECCENTRICITY": 0.00164005, "INCLINATION": 98.73, "RA_OF_ASC_NODE": 21.674, "ARG_OF_PERICENTER": 193.5583, "MEAN_ANOMALY": 166.5149, "EPHEMERIS_TYPE": 0, "CLASSIFICATION_TYPE": "U", "NORAD_CAT_ID": 31685, "ELEMENT_SET_NO": 999, "REV_AT_EPOCH": 95245, "BSTAR": 0.00013928838, "MEAN_MOTION_DOT": 2.02e-06, "MEAN_MOTION_DDOT": 0}, "tle": {"line1": "1 31685U 99025CCT 25357.78701114  .00000202  00000+0  13929-3 0  9999", "line2": "2 31685  98.7300  21.6740 0016400 193.5583 166.5149 14.09662143952450"}}, "geometry": {"type": "Point", "coordinates": [-54.517219820574816, 81.09419809045265]}}, {"type": "Feature", "properties": {"norad_id": 31686, "name": "FENGYUN 1C DEB", "group": "fengyun-1c-debris", "lat": 37.04515634578335, "lon": 65.7893571512463, "alt_km": 454.3379529585591, "timestamp": "2025-12-26T08:37:54.863869+00:00", "meta": {"OBJECT_NAME": "FENGYUN 1C DEB", "OBJECT_ID": "1999-025CCU", "EPOCH": "2025-12-21T22:27:00.303552", "MEAN_MOTION": 14.7223699, "ECCENTRICITY": 0.02829038, "INCLINATION": 98.1511, "RA_OF_ASC_NODE": 67.5581, "ARG_OF_PERICENTER": 60.2602, "MEAN_ANOMALY": 302.6434, "EPHEMERIS_TYPE": 0, "CLASSIFICATION_TYPE": "U", "NORAD_CAT_ID": 31686, "ELEMENT_SET_NO": 999, "REV_AT_EPOCH": 97954, "BSTAR": 0.00063583976, "MEAN_MOTION_DOT": 7.541e-05, "MEAN_MOTION_DDOT": 0}, "tle": {"line1": "1 31686U 99025CCU 25355.93542018  .00007541  00000+0  63584-3 0  9996", "line2": "2 31686  98.1511  67.5581 0282903  60.2602 302.6434 14.72236990979542"}}, "geometry": {"type": "Point", "coordinates": [65.7893571512463, 37.04515634578335]}}, {"type": "Feature", "properties": {"norad_id": 31688, "name": "FENGYUN 1C DEB", "group": "fengyun-1c-debris", "lat": -35.1906319471259, "lon": -132.1788630611099, "alt_km": 911.8024218866167, "timestamp": "2025-12-26T08:37:54.863879+00:00", "meta": {"OBJECT_NAME": "FENGYUN 1C DEB", "OBJECT_ID": "1999-025CCW", "EPOCH": "2025-12-24T23:04:45.182784", "MEAN_MOTION": 14.02316478, "ECCENTRICITY": 0.00755733, "INCLINATION": 98.9619, "RA_OF_ASC_NODE": 52.8355, "ARG_OF_PERICENTER": 107.8977, "MEAN_ANOMALY": 253.0448, "EPHEMERIS_TYPE": 0, "CLASSIFICATION_TYPE": "U", "NORAD_CAT_ID": 31688, "ELEMENT_SET_NO": 999, "REV_AT_EPOCH": 95449, "BSTAR": 9.6673387e-05, "MEAN_MOTION_DOT": 1.09e-06, "MEAN_MOTION_DDOT": 0}, "tle": {"line1": "1 31688U 99025CCW 25358.96163406  .00000109  00000+0  96673-4 0  9993", "line2": "2 31688  98.9619  52.8355 0075573 107.8977 253.0448 14.02316478954497"}}, "geometry": {"type": "Point", "coordinates": [-132.1788630611099, -35.1906319471259]}}, {"type": "Feature", "properties": {"norad_id": 31691, "name": "FENGYUN 1C DEB", "group": "fengyun-1c-debris", "lat": 48.4618868517282, "lon": -82.85633582217433, "alt_km": 784.2198285049717, "timestamp": "2025-12-26T08:37:54.863889+00:00", "meta": {"OBJECT_NAME": "FENGYUN 1C DEB", "OBJECT_ID": "1999-025CCZ", "EPOCH": "2025-12-24T12:14:29.737824", "MEAN_MOTION": 14.26259631, "ECCENTRICITY": 0.00619367, "INCLINATION": 98.8802, "RA_OF_ASC_NODE": 85.1044, "ARG_OF_PERICENTER": 205.8688, "MEAN_ANOMALY": 153.9391, "EPHEMERIS_TYPE": 0, "CLASSIFICATION_TYPE": "U", "NORAD_CAT_ID": 31691, "ELEMENT_SET_NO": 999, "REV_AT_EPOCH": 64279, "BSTAR": 0.0023694537, "MEAN_MOTION_DOT": 5.757e-05, "MEAN_MOTION_DDOT": 0}, "tle": {"line1": "1 31691U 99025CCZ 25358.51006641  .00005757  00000+0  23695-2 0  9991", "line2": "2 31691  98.8802  85.1044 0061936 205.8688 153.9391 14.26259631642799"}}, "geometry": {"type": "Point", "coordinates": [-82.85633582217433, 48.4618868517282]}}, {"type": "Feature", "properties": {"norad_id": 31692, "name": "FENGYUN 1C DEB", "group": "fengyun-1c-debris", "lat": 33.59388392133813, "lon": -8.858868456550718, "alt_km": 765.4030304878788, "timestamp": "2025-12-26T08:37:54.863899+00:00", "meta": {"OBJECT_NAME": "FENGYUN 1C DEB", "OBJECT_ID": "1999-025CDA", "EPOCH": "2025-12-24T22:37:00.691968", "MEAN_MOTION": 14.18480658, "ECCENTRICITY": 0.00882618, "INCLINATION": 99.1772, "RA_OF_ASC_NODE": 355.84, "ARG_OF_PERICENTER": 47.2008, "MEAN_ANOMALY": 313.6544, "EPHEMERIS_TYPE": 0, "CLASSIFICATION_TYPE": "U", "NORAD_CAT_ID": 31692, "ELEMENT_SET_NO": 999, "REV_AT_EPOCH": 58382, "BSTAR": 0.0029625894, "MEAN_MOTION_DOT": 6.321e-05, "MEAN_MOTION_DDOT": 0}, "tle": {"line1": "1 31692U 99025CDA 25358.94236912  .00006321  00000+0  29626-2 0  9993", "line2": "2 31692  99.1772 355.8400 0088261  47.2008 313.6544 14.18480658583826"}}, "geometry": {"type": "Point", "coordinates": [-8.858868456550718, 33.59388392133813]}}, {"type": "Feature", "properties": {"norad_id": 31695, "name": "FENGYUN 1C DEB", "group": "fengyun-1c-debris", "lat": -1.8589472181616553, "lon": 85.2108456931443, "alt_km": 773.4769398933176, "timestamp": "2025-12-26T08:37:54.863909+00:00", "meta": {"OBJECT_NAME": "FENGYUN 1C DEB", "OBJECT_ID": "1999-025CDD", "EPOCH": "2025-12-23T23:36:59.258880", "MEAN_MOTION": 14.73939254, "ECCENTRICITY": 0.01749443, "INCLINATION": 98.2639, "RA_OF_ASC_NODE": 82.5186, "ARG_OF_PERICENTER": 192.7541, "MEAN_ANOMALY": 166.9213, "EPHEMERIS_TYPE": 0, "CLASSIFICATION_TYPE": "U", "NORAD_CAT_ID": 31695, "ELEMENT_SET_NO": 999, "REV_AT_EPOCH": 66137, "BSTAR": 0.0016968372, "MEAN_MOTION_DOT": 0.00014207, "MEAN_MOTION_DDOT": 0}, "tle": {"line1": "1 31695U 99025CDD 25357.98401920  .00014207  00000+0  16968-2 0  9999", "line2": "2 31695  98.2639  82.5186 0174944 192.7541 166.9213 14.73939254661379"}}, "geometry": {"type": "Point", "coordinates": [85.2108456931443, -1.8589472181616553]}}, {"type": "Feature", "properties": {"norad_id": 31714, "name": "FENGYUN 1C DEB", "group": "fengyun-1c-debris", "lat": 78.9190817811633, "lon": 136.74015352796448, "alt_km": 602.2334097215726, "timestamp": "2025-12-26T08:37:54.863919+00:00", "meta": {"OBJECT_NAME": "FENGYUN 1C DEB", "OBJECT_ID": "1999-025CDM", "EPOCH": "2025-12-25T16:20:59.212896", "MEAN_MOTION": 14.89420088, "ECCENTRICITY": 0.00154335, "INCLINATION": 99.0312, "RA_OF_ASC_NODE": 261.6631, "ARG_OF_PERICENTER": 258.4256, "MEAN_ANOMALY": 162.4914, "EPHEMERIS_TYPE": 0, "CLASSIFICATION_TYPE": "U", "NORAD_CAT_ID": 31714, "ELEMENT_SET_NO": 999, "REV_AT_EPOCH": 96242, "BSTAR": 0.006045114, "MEAN_MOTION_DOT": 0.00057984, "MEAN_MOTION_DDOT": 0}, "tle": {"line1": "1 31714U 99025CDM 25359.68124089  .00057984  00000+0  60451-2 0  9993", "line2": "2 31714  99.0312 261.6631 0015433 258.4256 162.4914 14.89420088962429"}}, "geometry": {"type": "Point", "coordinates": [136.74015352796448, 78.9190817811633]}}]}